NORAD_CAT_ID,OBJECT_NAME,OBJECT_TYPE,EPOCH,MEAN_MOTION,ECCENTRICITY,INCLINATION,RA_OF_ASC_NODE,ARG_OF_PERICENTER,MEAN_ANOMALY,BSTAR,MEAN_MOTION_DOT,MEAN_MOTION_DDOT,TLE_LINE0,TLE_LINE1,TLE_LINE2,SEMIMAJOR_AXIS,PERIOD,APOGEE,PERIGEE,DECAYED
55409.0,STARLINK-5047,PAYLOAD,2024-08-19 22:00:00,14.98310568,0.0003468,70.0006,53.6324,277.4734,124.6043,0.0031373,0.00037524,0.0,0 STARLINK-5047,1 55409U 23014U   24232.91667824  .00037524  00000-0  31373-2 0  9999,2 55409  70.0006  53.6324 0003468 277.4734 124.6043 14.98310568 86218,6950.253,96.108,574.528,569.708,0.0
55409.0,STARLINK-5047,PAYLOAD,2024-08-20 12:13:50,14.98375666,0.0013273,70.0002,52.1377,285.8471,74.1225,0.00023615,2.732e-05,0.0,0 STARLINK-5047,1 55409U 23014U   24233.50961559  .00002732  00000-0  23615-3 0  9991,2 55409  70.0002  52.1377 0013273 285.8471  74.1225 14.98375666 86303,6950.052,96.104,581.141,562.692,0.0
55409.0,STARLINK-5047,PAYLOAD,2024-08-20 22:00:00,14.98317272,0.0003475,70.0008,51.1106,276.5763,117.9545,0.0019259,0.00022955,0.0,0 STARLINK-5047,1 55409U 23014U   24233.91667824  .00022955  00000-0  19259-2 0  9991,2 55409  70.0008  51.1106 0003475 276.5763 117.9545 14.98317272 86368,6950.232,96.108,574.512,569.682,0.0
55409.0,STARLINK-5047,PAYLOAD,2024-08-21 12:16:01,14.9832149,0.0003398,69.9999,49.6149,277.6487,82.4286,-4.1505e-06,-1.43e-06,0.0,0 STARLINK-5047,1 55409U 23014U   24234.51113282 -.00000143  00000-0 -41505-5 0  9991,2 55409  69.9999  49.6149 0003398 277.6487  82.4286 14.98321490 86457,6950.219,96.108,574.446,569.723,0.0
55409.0,STARLINK-5047,PAYLOAD,2024-08-21 13:52:13,14.98276231,0.000489,69.9999,49.4445,292.7772,67.287,-0.00048977,-5.925e-05,0.0,0 STARLINK-5047,1 55409U 23014U   24234.57793283 -.00005925  00000-0 -48977-3 0  9993,2 55409  69.9999  49.4445 0004890 292.7772  67.2870 14.98276231 87405,6950.359,96.11,575.623,568.825,0.0
55409.0,STARLINK-5047,PAYLOAD,2024-08-21 18:40:37,14.98283388,0.0003501,69.9997,48.9402,266.2849,93.7909,-0.00046989,-5.689e-05,0.0,0 STARLINK-5047,1 55409U 23014U   24234.77821216 -.00005689  00000-0 -46989-3 0  9991,2 55409  69.9997  48.9402 0003501 266.2849  93.7909 14.98283388 86495,6950.337,96.11,574.635,569.769,0.0
55409.0,STARLINK-5047,PAYLOAD,2024-08-21 20:16:43,14.98314242,0.0003759,69.9998,48.7727,264.5292,95.5438,-0.00012437,-1.576e-05,0.0,0 STARLINK-5047,1 55409U 23014U   24234.84494624 -.00001576  00000-0 -12437-3 0  9990,2 55409  69.9998  48.7727 0003759 264.5292  95.5438 14.98314242 86505,6950.242,96.108,574.719,569.494,0.0
